{"type": "FeatureCollection", "features": [ {"type": "Feature", "properties": {"norad_id": 52984, "name": "COSMOS 2557 (706K)", "group": "gnss", "lat": -38.97455129660023, "lon": 164.13559076184825, "alt_km": 19113.218666338867, "timestamp": "2025-12-04T15:47:54.341206+00:00", "meta": {"OBJECT_NAME": "COSMOS 2557 (706K)", "OBJECT_ID": "2022-075A", "EPOCH": "2025-12-01T01:56:28.375008", "MEAN_MOTION": 2.13101767, "ECCENTRICITY": 0.00137561, "INCLINATION": 64.4163, "RA_OF_ASC_NODE": 321.4618, "ARG_OF_PERICENTER": 276.3647, "MEAN_ANOMALY": 83.4921, "EPHEMERIS_TYPE": 0, "CLASSIFICATION_TYPE": "U", "NORAD_CAT_ID": 52984, "ELEMENT_SET_NO": 999, "REV_AT_EPOCH": 2649, "BSTAR": 0, "MEAN_MOTION_DOT": -2.7e-07, "MEAN_MOTION_DDOT": 0}, "tle": {"line1": "1 52984U 22075A   25335.08088397 -.00000027  00000+0  00000+0 0  9993", "line2": "2 52984  64.4163 321.4618 0013756 276.3647  83.4921  2.13101767 26492"}}, "geometry": {"type": "Point", "coordinates": [164.13559076184825, -38.97455129660023]}}, {"type": "Feature", "properties": {"norad_id": 54031, "name": "COSMOS 2559 (707K)", "group": "gnss", "lat": 2.869453405322121, "lon": -37.206643055621555, "alt_km": 19160.310210966072, "timestamp": "2025-12-04T15:47:54.341219+00:00", "meta": {"OBJECT_NAME": "COSMOS 2559 (707K)", "OBJECT_ID": "2022-130A", "EPOCH": "2025-12-03T17:10:26.893920", "MEAN_MOTION": 2.13101235, "ECCENTRICITY": 0.00120262, "INCLINATION": 64.3873, "RA_OF_ASC_NODE": 321.4588, "ARG_OF_PERICENTER": 192.7508, "MEAN_ANOMALY": 167.2215, "EPHEMERIS_TYPE": 0, "CLASSIFICATION_TYPE": "U", "NORAD_CAT_ID": 54031, "ELEMENT_SET_NO": 999, "REV_AT_EPOCH": 2452, "BSTAR": 0, "MEAN_MOTION_DOT": -4.4e-07, "MEAN_MOTION_DDOT": 0}, "tle": {"line1": "1 54031U 22130A   25337.71558905 -.00000044  00000+0  00000+0 0  9998", "line2": "2 54031  64.3873 321.4588 0012026 192.7508 167.2215  2.13101235 24525"}}, "geometry": {"type": "Point", "coordinates": [-37.206643055621555, 2.869453405322121]}}, {"type": "Feature", "properties": {"norad_id": 54377, "name": "COSMOS 2564 (761)", "group": "gnss", "lat": 49.65765161865716, "lon": -14.598947946153654, "alt_km": 19121.812362376313, "timestamp": "2025-12-04T15:47:54.341231+00:00", "meta": {"OBJECT_NAME": "COSMOS 2564 (761)", "OBJECT_ID": "2022-161A", "EPOCH": "2025-12-03T13:26:12.799104", "MEAN_MOTION": 2.13101952, "ECCENTRICITY": 0.00087056, "INCLINATION": 64.7377, "RA_OF_ASC_NODE": 199.204, "ARG_OF_PERICENTER": 206.235, "MEAN_ANOMALY": 153.818, "EPHEMERIS_TYPE": 0, "CLASSIFICATION_TYPE": "U", "NORAD_CAT_ID": 54377, "ELEMENT_SET_NO": 999, "REV_AT_EPOCH": 2346, "BSTAR": 0, "MEAN_MOTION_DOT": 1.05e-06, "MEAN_MOTION_DDOT": 0}, "tle": {"line1": "1 54377U 22161A   25337.55987036  .00000105  00000+0  00000+0 0  9995", "line2": "2 54377  64.7377 199.2040 0008705 206.2350 153.8180  2.13101952 23460"}}, "geometry": {"type": "Point", "coordinates": [-14.598947946153654, 49.65765161865716]}}, {"type": "Feature", "properties": {"norad_id": 55268, "name": "GPS BIII-6  (PRN 28)", "group": "gnss", "lat": 51.150777012532984, "lon": -83.95796623054162, "alt_km": 20180.05202023538, "timestamp": "2025-12-04T15:47:54.341242+00:00", "meta": {"OBJECT_NAME": "GPS BIII-6  (PRN 28)", "OBJECT_ID": "2023-009A", "EPOCH": "2025-12-03T18:12:38.807136", "MEAN_MOTION": 2.00556312, "ECCENTRICITY": 0.00036355, "INCLINATION": 55.1062, "RA_OF_ASC_NODE": 156.1984, "ARG_OF_PERICENTER": 358.5946, "MEAN_ANOMALY": 180.1179, "EPHEMERIS_TYPE": 0, "CLASSIFICATION_TYPE": "U", "NORAD_CAT_ID": 55268, "ELEMENT_SET_NO": 999, "REV_AT_EPOCH": 2132, "BSTAR": 0, "MEAN_MOTION_DOT": 9.9e-07, "MEAN_MOTION_DDOT": 0}, "tle": {"line1": "1 55268U 23009A   25337.75878249  .00000099  00000+0  00000+0 0  9996", "line2": "2 55268  55.1062 156.1984 0003635 358.5946 180.1179  2.00556312 21327"}}, "geometry": {"type": "Point", "coordinates": [-83.95796623054162, 51.150777012532984]}}, {"type": "Feature", "properties": {"norad_id": 56564, "name": "BEIDOU-3 G4 (C62)", "group": "gnss", "lat": 0.16683486416443344, "lon": 110.71593337727617, "alt_km": 35780.87715983799, "timestamp": "2025-12-04T15:47:54.341254+00:00", "meta": {"OBJECT_NAME": "BEIDOU-3 G4 (C62)", "OBJECT_ID": "2023-066A", "EPOCH": "2025-12-04T08:24:38.943936", "MEAN_MOTION": 1.00270923, "ECCENTRICITY": 0.00032913, "INCLINATION": 0.8344, "RA_OF_ASC_NODE": 301.3331, "ARG_OF_PERICENTER": 236.0471, "MEAN_ANOMALY": 182.2752, "EPHEMERIS_TYPE": 0, "CLASSIFICATION_TYPE": "U", "NORAD_CAT_ID": 56564, "ELEMENT_SET_NO": 999, "REV_AT_EPOCH": 944, "BSTAR": 0, "MEAN_MOTION_DOT": -9.5e-07, "MEAN_MOTION_DDOT": 0}, "tle": {"line1": "1 56564U 23066A   25338.35045074 -.00000095  00000+0  00000+0 0  9995", "line2": "2 56564   0.8344 301.3331 0003291 236.0471 182.2752  1.00270923  9447"}}, "geometry": {"type": "Point", "coordinates": [110.71593337727617, 0.16683486416443344]}}, {"type": "Feature", "properties": {"norad_id": 56759, "name": "NVS-01 (IRNSS-1J)", "group": "gnss", "lat": -0.3579181857876724, "lon": 80.19135356450617, "alt_km": 35824.29343282664, "timestamp": "2025-12-04T15:47:54.341266+00:00", "meta": {"OBJECT_NAME": "NVS-01 (IRNSS-1J)", "OBJECT_ID": "2023-076A", "EPOCH": "2025-12-04T07:29:36.995136", "MEAN_MOTION": 1.00266776, "ECCENTRICITY": 0.00086652, "INCLINATION": 2.6405, "RA_OF_ASC_NODE": 251.9086, "ARG_OF_PERICENTER": 6.5551, "MEAN_ANOMALY": 56.858, "EPHEMERIS_TYPE": 0, "CLASSIFICATION_TYPE": "U", "NORAD_CAT_ID": 56759, "ELEMENT_SET_NO": 999, "REV_AT_EPOCH": 916, "BSTAR": 0, "MEAN_MOTION_DOT": -3.18e-06, "MEAN_MOTION_DDOT": 0}, "tle": {"line1": "1 56759U 23076A   25338.31223374 -.00000318  00000+0  00000+0 0  9997", "line2": "2 56759   2.6405 251.9086 0008665   6.5551  56.8580  1.00266776  9162"}}, "geometry": {"type": "Point", "coordinates": [80.19135356450617, -0.3579181857876724]}}, {"type": "Feature", "properties": {"norad_id": 57517, "name": "COSMOS 2569 (703K)", "group": "gnss", "lat": 57.13331283479868, "lon": -146.43534766481804, "alt_km": 19149.066616071177, "timestamp": "2025-12-04T15:47:54.341282+00:00", "meta": {"OBJECT_NAME": "COSMOS 2569 (703K)", "OBJECT_ID": "2023-114A", "EPOCH": "2025-12-01T16:42:34.469856", "MEAN_MOTION": 2.13103822, "ECCENTRICITY": 0.0010109, "INCLINATION": 65.1883, "RA_OF_ASC_NODE": 79.2867, "ARG_OF_PERICENTER": 287.0179, "MEAN_ANOMALY": 72.8703, "EPHEMERIS_TYPE": 0, "CLASSIFICATION_TYPE": "U", "NORAD_CAT_ID": 57517, "ELEMENT_SET_NO": 999, "REV_AT_EPOCH": 1805, "BSTAR": 0, "MEAN_MOTION_DOT": -1.6e-07, "MEAN_MOTION_DDOT": 0}, "tle": {"line1": "1 57517U 23114A   25335.69623229 -.00000016  00000+0  00000+0 0  9999", "line2": "2 57517  65.1883  79.2867 0010109 287.0179  72.8703  2.13103822 18055"}}, "geometry": {"type": "Point", "coordinates": [-146.43534766481804, 57.13331283479868]}}, {"type": "Feature", "properties": {"norad_id": 58654, "name": "BEIDOU-3 M28 (C50)", "group": "gnss", "lat": -3.387660207324285, "lon": -108.79821408207438, "alt_km": 21528.056475727128, "timestamp": "2025-12-04T15:47:54.341297+00:00", "meta": {"OBJECT_NAME": "BEIDOU-3 M28 (C50)", "OBJECT_ID": "2023-207A", "EPOCH": "2025-12-02T18:32:49.254720", "MEAN_MOTION": 1.86229565, "ECCENTRICITY": 0.00020071, "INCLINATION": 55.5759, "RA_OF_ASC_NODE": 68.9391, "ARG_OF_PERICENTER": 265.1815, "MEAN_ANOMALY": 94.7983, "EPHEMERIS_TYPE": 0, "CLASSIFICATION_TYPE": "U", "NORAD_CAT_ID": 58654, "ELEMENT_SET_NO": 999, "REV_AT_EPOCH": 1318, "BSTAR": 0, "MEAN_MOTION_DOT": -4.9e-07, "MEAN_MOTION_DDOT": 0}, "tle": {"line1": "1 58654U 23207A   25336.77279230 -.00000049  00000+0  00000+0 0  9990", "line2": "2 58654  55.5759  68.9391 0002007 265.1815  94.7983  1.86229565 13186"}}, "geometry": {"type": "Point", "coordinates": [-108.79821408207438, -3.387660207324285]}}, {"type": "Feature", "properties": {"norad_id": 58655, "name": "BEIDOU-3 M26 (C48)", "group": "gnss", "lat": -32.23000866192981, "lon": 43.29439678365354, "alt_km": 21528.69030789236, "timestamp": "2025-12-04T15:47:54.341308+00:00", "meta": {"OBJECT_NAME": "BEIDOU-3 M26 (C48)", "OBJECT_ID": "2023-207B", "EPOCH": "2025-12-03T02:34:45.227424", "MEAN_MOTION": 1.86231091, "ECCENTRICITY": 0.00034591, "INCLINATION": 55.5782, "RA_OF_ASC_NODE": 68.9139, "ARG_OF_PERICENTER": 250.5367, "MEAN_ANOMALY": 109.429, "EPHEMERIS_TYPE": 0, "CLASSIFICATION_TYPE": "U", "NORAD_CAT_ID": 58655, "ELEMENT_SET_NO": 999, "REV_AT_EPOCH": 1317, "BSTAR": 0, "MEAN_MOTION_DOT": -5e-07, "MEAN_MOTION_DDOT": 0}, "tle": {"line1": "1 58655U 23207B   25337.10746791 -.00000050  00000+0  00000+0 0  9992", "line2": "2 58655  55.5782  68.9139 0003459 250.5367 109.4290  1.86231091 13176"}}, "geometry": {"type": "Point", "coordinates": [43.29439678365354, -32.23000866192981]}}, {"type": "Feature", "properties": {"norad_id": 59598, "name": "GSAT0225 (GALILEO 29)", "group": "gnss", "lat": -1.3641197885400678, "lon": 105.54599548927567, "alt_km": 23228.4554531488, "timestamp": "2025-12-04T15:47:54.341319+00:00", "meta": {"OBJECT_NAME": "GSAT0225 (GALILEO 29)", "OBJECT_ID": "2024-079A", "EPOCH": "2025-12-04T01:47:23.955648", "MEAN_MOTION": 1.70474518, "ECCENTRICITY": 0.0002, "INCLINATION": 54.9978, "RA_OF_ASC_NODE": 106.5374, "ARG_OF_PERICENTER": 171.9845, "MEAN_ANOMALY": 188.0819, "EPHEMERIS_TYPE": 0, "CLASSIFICATION_TYPE": "U", "NORAD_CAT_ID": 59598, "ELEMENT_SET_NO": 999, "REV_AT_EPOCH": 999, "BSTAR": 0, "MEAN_MOTION_DOT": 1.5e-07, "MEAN_MOTION_DDOT": 0}, "tle": {"line1": "1 59598U 24079A   25338.07458282  .00000015  00000+0  00000+0 0  9999", "line2": "2 59598  54.9978 106.5374 0002000 171.9845 188.0819  1.70474518  9992"}}, "geometry": {"type": "Point", "coordinates": [105.54599548927567, -1.3641197885400678]}}]}